{"type": "FeatureCollection", "features": [ {"type": "Feature", "properties": {"norad_id": 66638, "name": "STARLINK-35972", "group": "last-30-days", "lat": -16.38836911989737, "lon": 14.887956778922232, "alt_km": 421.60301298467766, "timestamp": "2025-12-13T18:50:03.173509+00:00", "meta": {"OBJECT_NAME": "STARLINK-35972", "OBJECT_ID": "2025-271X", "EPOCH": "2025-12-13T06:00:02.000160", "MEAN_MOTION": 15.49256425, "ECCENTRICITY": 3.941e-05, "INCLINATION": 53.1599, "RA_OF_ASC_NODE": 184.7076, "ARG_OF_PERICENTER": 73.7827, "MEAN_ANOMALY": 22.6055, "EPHEMERIS_TYPE": 0, "CLASSIFICATION_TYPE": "U", "NORAD_CAT_ID": 66638, "ELEMENT_SET_NO": 999, "REV_AT_EPOCH": 432, "BSTAR": 0.0012009208, "MEAN_MOTION_DOT": 0.00066791, "MEAN_MOTION_DDOT": 0}, "tle": {"line1": "1 66638U 25271X   25347.25002315  .00066791  00000+0  12009-2 0  9997", "line2": "2 66638  53.1599 184.7076 0000394  73.7827  22.6055 15.49256425  4328"}}, "geometry": {"type": "Point", "coordinates": [14.887956778922232, -16.38836911989737]}}, {"type": "Feature", "properties": {"norad_id": 66639, "name": "STARLINK-35908", "group": "last-30-days", "lat": -17.876274590795255, "lon": 16.139247657442716, "alt_km": 421.7937729890018, "timestamp": "2025-12-13T18:50:03.173519+00:00", "meta": {"OBJECT_NAME": "STARLINK-35908", "OBJECT_ID": "2025-271Y", "EPOCH": "2025-12-13T06:00:02.000160", "MEAN_MOTION": 15.49254974, "ECCENTRICITY": 4.451e-05, "INCLINATION": 53.1598, "RA_OF_ASC_NODE": 184.7032, "ARG_OF_PERICENTER": 68.8542, "MEAN_ANOMALY": 29.4491, "EPHEMERIS_TYPE": 0, "CLASSIFICATION_TYPE": "U", "NORAD_CAT_ID": 66639, "ELEMENT_SET_NO": 999, "REV_AT_EPOCH": 432, "BSTAR": 0.0012019074, "MEAN_MOTION_DOT": 0.00066843, "MEAN_MOTION_DDOT": 0}, "tle": {"line1": "1 66639U 25271Y   25347.25002315  .00066843  00000+0  12019-2 0  9997", "line2": "2 66639  53.1598 184.7032 0000445  68.8542  29.4491 15.49254974  4322"}}, "geometry": {"type": "Point", "coordinates": [16.139247657442716, -17.876274590795255]}}, {"type": "Feature", "properties": {"norad_id": 66640, "name": "STARLINK-35921", "group": "last-30-days", "lat": -19.406651779303846, "lon": 17.456438178171158, "alt_km": 422.33621870071875, "timestamp": "2025-12-13T18:50:03.173534+00:00", "meta": {"OBJECT_NAME": "STARLINK-35921", "OBJECT_ID": "2025-271Z", "EPOCH": "2025-12-13T06:00:02.000160", "MEAN_MOTION": 15.49374384, "ECCENTRICITY": 0.00010324, "INCLINATION": 53.1599, "RA_OF_ASC_NODE": 184.6994, "ARG_OF_PERICENTER": 91.4388, "MEAN_ANOMALY": 8.8379, "EPHEMERIS_TYPE": 0, "CLASSIFICATION_TYPE": "U", "NORAD_CAT_ID": 66640, "ELEMENT_SET_NO": 999, "REV_AT_EPOCH": 432, "BSTAR": -0.0028580368, "MEAN_MOTION_DOT": -0.00156617, "MEAN_MOTION_DDOT": 0}, "tle": {"line1": "1 66640U 25271Z   25347.25002315 -.00156617  00000+0 -28580-2 0  9990", "line2": "2 66640  53.1599 184.6994 0001032  91.4388   8.8379 15.49374384  4328"}}, "geometry": {"type": "Point", "coordinates": [17.456438178171158, -19.406651779303846]}}, {"type": "Feature", "properties": {"norad_id": 66641, "name": "STARLINK-35923", "group": "last-30-days", "lat": -25.236781910869453, "lon": 22.818882991140583, "alt_km": 422.7888874651899, "timestamp": "2025-12-13T18:50:03.173544+00:00", "meta": {"OBJECT_NAME": "STARLINK-35923", "OBJECT_ID": "2025-271AA", "EPOCH": "2025-12-13T06:00:02.000160", "MEAN_MOTION": 15.49327761, "ECCENTRICITY": 0.00010821, "INCLINATION": 53.1601, "RA_OF_ASC_NODE": 184.6822, "ARG_OF_PERICENTER": 94.6411, "MEAN_ANOMALY": 13.3199, "EPHEMERIS_TYPE": 0, "CLASSIFICATION_TYPE": "U", "NORAD_CAT_ID": 66641, "ELEMENT_SET_NO": 999, "REV_AT_EPOCH": 432, "BSTAR": -0.0015642057, "MEAN_MOTION_DOT": -0.00086543, "MEAN_MOTION_DDOT": 0}, "tle": {"line1": "1 66641U 25271AA  25347.25002315 -.00086543  00000+0 -15642-2 0  9996", "line2": "2 66641  53.1601 184.6822 0001082  94.6411  13.3199 15.49327761  4328"}}, "geometry": {"type": "Point", "coordinates": [22.818882991140583, -25.236781910869453]}}, {"type": "Feature", "properties": {"norad_id": 66642, "name": "STARLINK-35926", "group": "last-30-days", "lat": -23.737628346781722, "lon": 21.379710419415975, "alt_km": 422.38444747320045, "timestamp": "2025-12-13T18:50:03.173556+00:00", "meta": {"OBJECT_NAME": "STARLINK-35926", "OBJECT_ID": "2025-271AB", "EPOCH": "2025-12-13T06:00:02.000160", "MEAN_MOTION": 15.49254788, "ECCENTRICITY": 5.357e-05, "INCLINATION": 53.16, "RA_OF_ASC_NODE": 184.6871, "ARG_OF_PERICENTER": 64.0906, "MEAN_ANOMALY": 41.8651, "EPHEMERIS_TYPE": 0, "CLASSIFICATION_TYPE": "U", "NORAD_CAT_ID": 66642, "ELEMENT_SET_NO": 999, "REV_AT_EPOCH": 408, "BSTAR": 0.0012000431, "MEAN_MOTION_DOT": 0.00066737, "MEAN_MOTION_DDOT": 0}, "tle": {"line1": "1 66642U 25271AB  25347.25002315  .00066737  00000+0  12000-2 0  9993", "line2": "2 66642  53.1600 184.6871 0000535  64.0906  41.8651 15.49254788  4084"}}, "geometry": {"type": "Point", "coordinates": [21.379710419415975, -23.737628346781722]}}, {"type": "Feature", "properties": {"norad_id": 66643, "name": "STARLINK-35918", "group": "last-30-days", "lat": -20.87908482324934, "lon": 18.755249896798013, "alt_km": 422.4543494678783, "timestamp": "2025-12-13T18:50:03.173567+00:00", "meta": {"OBJECT_NAME": "STARLINK-35918", "OBJECT_ID": "2025-271AC", "EPOCH": "2025-12-13T06:00:02.000160", "MEAN_MOTION": 15.49364673, "ECCENTRICITY": 9.686e-05, "INCLINATION": 53.1601, "RA_OF_ASC_NODE": 184.6955, "ARG_OF_PERICENTER": 91.9843, "MEAN_ANOMALY": 10.212, "EPHEMERIS_TYPE": 0, "CLASSIFICATION_TYPE": "U", "NORAD_CAT_ID": 66643, "ELEMENT_SET_NO": 999, "REV_AT_EPOCH": 432, "BSTAR": -0.0025904162, "MEAN_MOTION_DOT": -0.00142203, "MEAN_MOTION_DDOT": 0}, "tle": {"line1": "1 66643U 25271AC  25347.25002315 -.00142203  00000+0 -25904-2 0  9996", "line2": "2 66643  53.1601 184.6955 0000968  91.9843  10.2120 15.49364673  4321"}}, "geometry": {"type": "Point", "coordinates": [18.755249896798013, -20.87908482324934]}}, {"type": "Feature", "properties": {"norad_id": 66644, "name": "STARLINK-35938", "group": "last-30-days", "lat": -22.28490184730448, "lon": 20.027774249743498, "alt_km": 422.28861348710507, "timestamp": "2025-12-13T18:50:03.173577+00:00", "meta": {"OBJECT_NAME": "STARLINK-35938", "OBJECT_ID": "2025-271AD", "EPOCH": "2025-12-13T06:00:02.000160", "MEAN_MOTION": 15.4925431, "ECCENTRICITY": 4.991e-05, "INCLINATION": 53.1598, "RA_OF_ASC_NODE": 184.6914, "ARG_OF_PERICENTER": 50.6052, "MEAN_ANOMALY": 53.4368, "EPHEMERIS_TYPE": 0, "CLASSIFICATION_TYPE": "U", "NORAD_CAT_ID": 66644, "ELEMENT_SET_NO": 999, "REV_AT_EPOCH": 432, "BSTAR": 0.0011821345, "MEAN_MOTION_DOT": 0.00065725, "MEAN_MOTION_DDOT": 0}, "tle": {"line1": "1 66644U 25271AD  25347.25002315  .00065725  00000+0  11821-2 0  9991", "line2": "2 66644  53.1598 184.6914 0000499  50.6052  53.4368 15.49254310  4324"}}, "geometry": {"type": "Point", "coordinates": [20.027774249743498, -22.28490184730448]}}, {"type": "Feature", "properties": {"norad_id": 66645, "name": "SHENZHOU-22", "group": "last-30-days", "lat": -39.62146136716857, "lon": -100.00300807683666, "alt_km": 397.45667169821627, "timestamp": "2025-12-13T18:50:03.173587+00:00", "meta": {"OBJECT_NAME": "SHENZHOU-22", "OBJECT_ID": "2025-272A", "EPOCH": "2025-12-13T06:59:15.159552", "MEAN_MOTION": 15.59202655, "ECCENTRICITY": 0.00082357, "INCLINATION": 41.4684, "RA_OF_ASC_NODE": 13.3607, "ARG_OF_PERICENTER": 35.4193, "MEAN_ANOMALY": 324.7191, "EPHEMERIS_TYPE": 0, "CLASSIFICATION_TYPE": "U", "NORAD_CAT_ID": 66645, "ELEMENT_SET_NO": 999, "REV_AT_EPOCH": 26357, "BSTAR": 0.00037863929, "MEAN_MOTION_DOT": 0.00030374, "MEAN_MOTION_DDOT": 0}, "tle": {"line1": "1 66645U 25272A   25347.29114768  .00030374  00000+0  37864-3 0  9991", "line2": "2 66645  41.4684  13.3607 0008235  35.4193 324.7191 15.59202655263579"}}, "geometry": {"type": "Point", "coordinates": [-100.00300807683666, -39.62146136716857]}}, {"type": "Feature", "properties": {"norad_id": 66647, "name": "COSMOS 2597 (RODNIK-S 22)", "group": "last-30-days", "lat": 78.30864007844629, "lon": 66.25757630438459, "alt_km": 1497.177992547231, "timestamp": "2025-12-13T18:50:03.173598+00:00", "meta": {"OBJECT_NAME": "COSMOS 2597 (RODNIK-S 22)", "OBJECT_ID": "2025-273A", "EPOCH": "2025-12-13T02:50:08.810592", "MEAN_MOTION": 12.41951311, "ECCENTRICITY": 0.00078698, "INCLINATION": 82.4988, "RA_OF_ASC_NODE": 286.2139, "ARG_OF_PERICENTER": 288.3453, "MEAN_ANOMALY": 71.677, "EPHEMERIS_TYPE": 0, "CLASSIFICATION_TYPE": "U", "NORAD_CAT_ID": 66647, "ELEMENT_SET_NO": 999, "REV_AT_EPOCH": 218, "BSTAR": 7.1733352e-05, "MEAN_MOTION_DOT": 2e-07, "MEAN_MOTION_DDOT": 0}, "tle": {"line1": "1 66647U 25273A   25347.11815753  .00000020  00000+0  71733-4 0  9996", "line2": "2 66647  82.4988 286.2139 0007869 288.3453  71.6770 12.41951311  2181"}}, "geometry": {"type": "Point", "coordinates": [66.25757630438459, 78.30864007844629]}}, {"type": "Feature", "properties": {"norad_id": 66648, "name": "COSMOS 2598 (RODNIK-S 23)", "group": "last-30-days", "lat": 40.101349039828115, "lon": 99.43269561459124, "alt_km": 1490.2188702878266, "timestamp": "2025-12-13T18:50:03.173608+00:00", "meta": {"OBJECT_NAME": "COSMOS 2598 (RODNIK-S 23)", "OBJECT_ID": "2025-273B", "EPOCH": "2025-12-13T06:29:51.535104", "MEAN_MOTION": 12.4323332, "ECCENTRICITY": 0.00079944, "INCLINATION": 82.5022, "RA_OF_ASC_NODE": 286.1192, "ARG_OF_PERICENTER": 235.7621, "MEAN_ANOMALY": 124.2702, "EPHEMERIS_TYPE": 0, "CLASSIFICATION_TYPE": "U", "NORAD_CAT_ID": 66648, "ELEMENT_SET_NO": 999, "REV_AT_EPOCH": 220, "BSTAR": -4.7534655e-05, "MEAN_MOTION_DOT": 3e-08, "MEAN_MOTION_DDOT": 0}, "tle": {"line1": "1 66648U 25273B   25347.27073536  .00000003  00000+0 -47535-4 0  9994", "line2": "2 66648  82.5022 286.1192 0007994 235.7621 124.2702 12.43233320  2200"}}, "geometry": {"type": "Point", "coordinates": [99.43269561459124, 40.101349039828115]}}]}